[{"OBJECT_NAME":"STARLINK-5791","OBJECT_ID":"2023-090AX","EPOCH":"2026-03-09T22:00:01.999584","MEAN_MOTION":15.07948621,"ECCENTRICITY":0.00011923,"INCLINATION":43.001,"RA_OF_ASC_NODE":260.3109,"ARG_OF_PERICENTER":308.3767,"MEAN_ANOMALY":224.9972,"EPHEMERIS_TYPE":0,"CLASSIFICATION_TYPE":"U","NORAD_CAT_ID":57146,"ELEMENT_SET_NO":999,"REV_AT_EPOCH":567,"BSTAR":0.0048057365,"MEAN_MOTION_DOT":0.00075685,"MEAN_MOTION_DDOT":0},{"OBJECT_NAME":"LEMUR-2-THERMORAPTOR","OBJECT_ID":"2025-061D","EPOCH":"2026-03-09T21:59:50.013312","MEAN_MOTION":15.13256334,"ECCENTRICITY":0.00176188,"INCLINATION":97.562,"RA_OF_ASC_NODE":45.6468,"ARG_OF_PERICENTER":235.5571,"MEAN_ANOMALY":124.3996,"EPHEMERIS_TYPE":0,"CLASSIFICATION_TYPE":"U","NORAD_CAT_ID":63354,"ELEMENT_SET_NO":999,"REV_AT_EPOCH":5259,"BSTAR":0.00030402789,"MEAN_MOTION_DOT":5.359e-5,"MEAN_MOTION_DDOT":0}]
